0 OPS 7684 DEB
1 03617U 68112C   13283.43511382  .00000010  00000-0  26708-4 0   729
2 03617 080.1847 000.2416 0045269 254.2631 235.2634 12.63261305 66364
0 OPS 7684 DEB
1 03617U 68112C   13286.36593977  .00000036  00000-0  16769-3 0   738
2 03617 080.1842 357.7686 0045273 247.9809 243.9787 12.63261159 66732
0 OPS 7684 DEB
1 03617U 68112C   13289.37345323  .00000051  00000-0  25084-3 0   740
2 03617 080.1833 355.2311 0045357 241.6241 241.3603 12.63261366 67116
0 OPS 7684 DEB
1 03617U 68112C   13291.59162053  .00000031  00000-0  14118-3 0   759
2 03617 080.1828 353.3589 0045409 236.8970 249.0415 12.63261564 67395
0 OPS 7684 DEB
1 03617U 68112C   13295.12771817  .00000031  00000-0  14118-3 0   767
2 03617 080.1870 350.3806 0045603 230.3645 129.3402 12.63261587 67846
